OBJECT_NAME,OBJECT_ID,EPOCH,MEAN_MOTION,ECCENTRICITY,INCLINATION,RA_OF_ASC_NODE,ARG_OF_PERICENTER,MEAN_ANOMALY,EPHEMERIS_TYPE,CLASSIFICATION_TYPE,NORAD_CAT_ID,ELEMENT_SET_NO,REV_AT_EPOCH,BSTAR,MEAN_MOTION_DOT,MEAN_MOTION_DDOT
TDRS 3,1988-091B,2026-07-11T18:27:26.453088,1.00263734,.00369938,12.5834,340.8354,355.4936,181.0945,0,U,19548,999,12563,0,-.299E-5,0
FLTSATCOM 8 (USA 46),1989-077A,2026-07-11T16:56:34.169856,1.00264810,.00035346,12.4145,351.0138,68.8718,249.4372,0,U,20253,999,26080,0,-.369E-5,0
SKYNET 4C,1990-079A,2026-07-11T14:34:08.604192,0.98577098,.00028699,13.3305,349.6572,137.0180,234.3093,0,U,20776,999,28,0,-.57E-6,0
TDRS 5,1991-054B,2026-07-11T16:10:52.027392,1.00272016,.00074214,14.0680,353.5936,257.4174,113.5801,0,U,21639,999,12796,0,.82E-6,0
TDRS 6,1993-003B,2026-07-11T10:20:05.617248,1.00281135,.00081209,14.1831,356.8764,183.5598,217.7981,0,U,22314,999,12265,0,-.297E-5,0
UFO 2 (USA 95),1993-056A,2026-07-11T15:24:18.794880,1.00268727,.00027656,11.9056,3.4183,8.9090,176.9468,0,U,22787,999,11879,0,.122E-5,0
USA 99 (MILSTAR-1 1),1994-009A,2026-07-11T15:22:25.455360,0.98720423,.00016267,17.6619,27.4499,196.6248,164.5715,0,U,22988,999,3319,0,-.2E-7,0
UFO 4 (USA 108),1995-003A,2026-07-11T17:48:00.233568,1.00275738,.00031481,9.6735,13.0236,95.1596,260.7854,0,U,23467,999,11519,0,-.23E-6,0
TDRS 7,1995-035B,2026-07-11T18:25:42.383424,1.00274794,.00116077,13.3668,348.0186,85.5182,221.7935,0,U,23613,999,11349,0,-.242E-5,0
USA 115 (MILSTAR-1 2),1995-060A,2026-07-11T11:25:09.092352,1.00273129,.00061309,14.0813,3.5611,123.8600,243.2260,0,U,23712,999,3313,0,-.205E-5,0
INMARSAT 3-F1,1996-020A,2026-07-11T16:24:13.247424,0.99979526,.00043527,10.6504,46.4057,84.6014,283.5621,0,U,23839,999,11050,0,.32E-6,0
INMARSAT 3-F2,1996-053A,2026-07-11T12:26:33.158112,0.99993520,.00064274,9.9101,53.6857,51.1321,136.6928,0,U,24307,999,10916,0,-.362E-5,0
INMARSAT 3-F3,1996-070A,2026-07-11T06:47:59.557344,0.99993755,.00035065,10.3688,49.4192,71.0481,288.6050,0,U,24674,999,10814,0,.59E-6,0
USA 134,1997-065A,2026-07-11T14:32:43.586592,1.00272793,.00024052,12.8121,21.5343,333.3369,40.3875,0,U,25019,999,3320,0,-.67E-6,0
INMARSAT 3-F5,1998-006B,2026-07-11T11:35:23.111232,1.00274432,.00043187,9.7453,53.0131,60.1004,296.1314,0,U,25153,999,10413,0,-.294E-5,0
ABS-6,1999-053A,2026-07-11T17:44:08.105280,1.00269274,.00031139,0.0493,270.4314,178.7088,265.5195,0,U,25924,999,9808,0,-.116E-5,0
UFO 10 (USA 146),1999-063A,2026-07-11T07:27:38.632320,1.00273254,.00014364,9.8574,27.0813,107.3672,243.7238,0,U,25967,999,9758,0,-.189E-5,0
ASIASTAR,2000-016A,2026-07-11T14:52:38.546112,1.00272873,.00036967,9.1839,57.8881,64.4408,135.3660,0,U,26107,999,9616,0,-.337E-5,0
USA 149 (DSP 20),2000-024A,2026-07-11T16:11:51.931104,1.00280654,.00016677,13.1883,11.6728,306.8063,49.3315,0,U,26356,999,3315,0,.93E-6,0
TDRS 8,2000-034A,2026-07-11T18:52:47.265024,1.00273011,.00042001,12.7213,31.1099,34.1661,232.4538,0,U,26388,999,9542,0,-.202E-5,0
NSS-11,2000-059A,2026-07-11T17:49:00.138144,1.00269541,.00027588,2.1873,81.0970,35.0646,256.7371,0,U,26554,999,4153,0,.27E-6,0
USA 153,2000-065A,2026-07-11T17:01:32.219616,1.00273537,.00020882,11.6654,35.2125,58.8640,225.3670,0,U,26575,999,3317,0,-.33E-5,0
AMC-6,2000-067A,2026-07-11T16:20:21.118272,1.00271323,.0003808,0.2120,83.5955,41.2608,274.7707,0,U,26580,999,9413,0,.93E-6,0
USA 157 (MILSTAR-2 2),2001-009A,2026-07-11T16:15:59.035968,1.00272628,.00405622,11.5688,19.6059,179.2210,184.6492,0,U,26715,999,3319,0,.106E-5,0
INTELSAT 902 (IS-902),2001-039A,2026-07-11T11:36:37.992384,1.00271111,.00044247,6.1764,71.4854,35.9335,306.0222,0,U,26900,999,9093,0,-.284E-5,0
USA 164 (MILSTAR-2 3),2002-001A,2026-07-11T17:00:29.534688,1.00275835,.00984906,11.2078,21.7516,8.9408,173.0330,0,U,27168,999,3320,0,.95E-6,0
INTELSAT 904 (IS-904),2002-007A,2026-07-11T09:59:11.415840,1.00271577,.00054002,6.9777,68.8900,23.3585,315.4057,0,U,27380,999,5200,0,-.226E-5,0
DIRECTV 5 (TEMPO 1),2002-023A,2026-07-11T14:44:45.087936,1.00271016,.00030154,4.9374,75.0044,41.5746,284.0173,0,U,27426,999,8836,0,-.57E-6,0
INTELSAT 905 (IS-905),2002-027A,2026-07-11T18:02:21.358176,1.00270760,.00034504,6.8125,69.5005,44.4109,309.1256,0,U,27438,999,5160,0,.91E-6,0
GALAXY 3C (G-3C),2002-030A,2026-07-11T14:48:44.705376,1.00270798,.00014999,3.7938,77.6586,38.3399,300.8819,0,U,27445,999,4673,0,-.151E-5,0
INTELSAT 906 (IS-906),2002-041A,2026-07-11T15:34:28.528320,1.00272426,.00039368,5.8626,72.6201,20.3459,134.3399,0,U,27513,999,8727,0,.12E-6,0
