TDRS 3                  
1 19548U 88091B   26192.76905617 -.00000299  00000+0  00000+0 0  9993
2 19548  12.5834 340.8354 0036993 355.4936 181.0945  1.00263734125635
FLTSATCOM 8 (USA 46)    
1 20253U 89077A   26192.70595104 -.00000369  00000+0  00000+0 0  9991
2 20253  12.4145 351.0138 0003534  68.8718 249.4372  1.00264810260804
SKYNET 4C               
1 20776U 90079A   26192.60704403 -.00000057  00000+0  00000+0 0  9992
2 20776  13.3305 349.6572 0002869 137.0180 234.3093  0.98577098   287
TDRS 5                  
1 21639U 91054B   26192.67421328  .00000082  00000+0  00000+0 0  9991
2 21639  14.0680 353.5936 0007421 257.4174 113.5801  1.00272016127963
TDRS 6                  
1 22314U 93003B   26192.43062057 -.00000297  00000+0  00000+0 0  9991
2 22314  14.1831 356.8764 0008120 183.5598 217.7981  1.00281135122653
UFO 2 (USA 95)          
1 22787U 93056A   26192.64188420  .00000122  00000+0  00000+0 0  9995
2 22787  11.9056   3.4183 0002765   8.9090 176.9468  1.00268727118795
USA 99 (MILSTAR-1 1)    
1 22988U 94009A   26192.64057240 -.00000002  00000+0  00000+0 0  9990
2 22988  17.6619  27.4499 0001626 196.6248 164.5715  0.98720423 33197
UFO 4 (USA 108)         
1 23467U 95003A   26192.74166937 -.00000023  00000+0  00000+0 0  9996
2 23467   9.6735  13.0236 0003148  95.1596 260.7854  1.00275738115192
TDRS 7                  
1 23613U 95035B   26192.76785166 -.00000242  00000+0  00000+0 0  9990
2 23613  13.3668 348.0186 0011607  85.5182 221.7935  1.00274794113499
USA 115 (MILSTAR-1 2)   
1 23712U 95060A   26192.47579968 -.00000205  00000+0  00000+0 0  9996
2 23712  14.0813   3.5611 0006130 123.8600 243.2260  1.00273129 33134
INMARSAT 3-F1           
1 23839U 96020A   26192.68348666  .00000032  00000+0  00000+0 0  9992
2 23839  10.6504  46.4057 0004352  84.6014 283.5621  0.99979526110506
INMARSAT 3-F2           
1 24307U 96053A   26192.51843933 -.00000362  00000+0  00000+0 0  9995
2 24307   9.9101  53.6857 0006427  51.1321 136.6928  0.99993520109162
INMARSAT 3-F3           
1 24674U 96070A   26192.28332821  .00000059  00000+0  00000+0 0  9996
2 24674  10.3688  49.4192 0003506  71.0481 288.6050  0.99993755108144
USA 134                 
1 25019U 97065A   26192.60606003 -.00000067  00000+0  00000+0 0  9997
2 25019  12.8121  21.5343 0002405 333.3369  40.3875  1.00272793 33209
INMARSAT 3-F5           
1 25153U 98006B   26192.48290638 -.00000294  00000+0  00000+0 0  9993
2 25153   9.7453  53.0131 0004318  60.1004 296.1314  1.00274432104134
ABS-6                   
1 25924U 99053A   26192.73898270 -.00000116  00000+0  00000+0 0  9999
2 25924   0.0493 270.4314 0003113 178.7088 265.5195  1.00269274 98087
UFO 10 (USA 146)        
1 25967U 99063A   26192.31086380 -.00000189  00000+0  00000+0 0  9992
2 25967   9.8574  27.0813 0001436 107.3672 243.7238  1.00273254 97587
ASIASTAR                
1 26107U 00016A   26192.61989058 -.00000337  00000+0  00000+0 0  9991
2 26107   9.1839  57.8881 0003696  64.4408 135.3660  1.00272873 96161
USA 149 (DSP 20)        
1 26356U 00024A   26192.67490661  .00000093  00000+0  00000+0 0  9997
2 26356  13.1883  11.6728 0001667 306.8063  49.3315  1.00280654 33152
TDRS 8                  
1 26388U 00034A   26192.78665816 -.00000202  00000+0  00000+0 0  9994
2 26388  12.7213  31.1099 0004200  34.1661 232.4538  1.00273011 95427
NSS-11                  
1 26554U 00059A   26192.74236271  .00000027  00000+0  00000+0 0  9995
2 26554   2.1873  81.0970 0002758  35.0646 256.7371  1.00269541 41538
USA 153                 
1 26575U 00065A   26192.70940069 -.00000330  00000+0  00000+0 0  9996
2 26575  11.6654  35.2125 0002088  58.8640 225.3670  1.00273537 33174
AMC-6                   
1 26580U 00067A   26192.68079998  .00000093  00000+0  00000+0 0  9990
2 26580   0.2120  83.5955 0003808  41.2608 274.7707  1.00271323 94133
USA 157 (MILSTAR-2 2)   
1 26715U 01009A   26192.67776662  .00000106  00000+0  00000+0 0  9993
2 26715  11.5688  19.6059 0040562 179.2210 184.6492  1.00272628 33199
INTELSAT 902 (IS-902)   
1 26900U 01039A   26192.48377306 -.00000284  00000+0  00000+0 0  9991
2 26900   6.1764  71.4854 0004424  35.9335 306.0222  1.00271111 90934
USA 164 (MILSTAR-2 3)   
1 27168U 02001A   26192.70867517  .00000095  00000+0  00000+0 0  9990
2 27168  11.2078  21.7516 0098490   8.9408 173.0330  1.00275835 33202
INTELSAT 904 (IS-904)   
1 27380U 02007A   26192.41610435 -.00000226  00000+0  00000+0 0  9992
2 27380   6.9777  68.8900 0005400  23.3585 315.4057  1.00271577 52006
DIRECTV 5 (TEMPO 1)     
1 27426U 02023A   26192.61441074 -.00000057  00000+0  00000+0 0  9996
2 27426   4.9374  75.0044 0003015  41.5746 284.0173  1.00271016 88364
INTELSAT 905 (IS-905)   
1 27438U 02027A   26192.75163609  .00000091  00000+0  00000+0 0  9990
2 27438   6.8125  69.5005 0003450  44.4109 309.1256  1.00270760 51608
GALAXY 3C (G-3C)        
1 27445U 02030A   26192.61718409 -.00000151  00000+0  00000+0 0  9999
2 27445   3.7938  77.6586 0001499  38.3399 300.8819  1.00270798 46734
INTELSAT 906 (IS-906)   
1 27513U 02041A   26192.64894130  .00000012  00000+0  00000+0 0  9991
2 27513   5.8626  72.6201 0003936  20.3459 134.3399  1.00272426 87279
